{
  "opera_performances": [
    {
      "rism_id": "125794",
      "composer": "Paisiello, Giovanni",
      "librettist": "Metastasio, Pietro",
      "title": "Achille in Sciro",
      "performance_year": "1778",
      "placename": "Sankt Petersburg"
    },
    {
      "rism_id": "101479",
      "composer": "Mayr, Johann Simon",
      "librettist": "Rossi, Gaetano",
      "title": "Adelaide di Guesclino",
      "performance_year": "1799",
      "placename": "Venezia"
    },
    {
      "rism_id": "270001459",
      "composer": "Mayr, Johann Simon",
      "librettist": "Rossi, Gaetano",
      "title": "Adelaide di Guesclino",
      "performance_year": "1808",
      "placename": "Dresden"
    },
    {
      "rism_id": "452502381",
      "composer": "Mayr, Johann Simon",
      "librettist": "Rossi, Gaetano",
      "title": "Adelaide di Guesclino",
      "performance_year": "1815",
      "placename": "Hamburg"
    },
    {
      "rism_id": "103415",
      "composer": "Anfossi, Pasquale",
      "librettist": "Metastasio, Pietro",
      "title": "Adriano in Siria",
      "performance_year": "1777",
      "placename": "Padova"
    },
    {
      "rism_id": "850005576",
      "composer": "Mayr, Johann Simon",
      "librettist": "Metastasio, Pietro",
      "title": "Adriano in Siria",
      "performance_year": "1798",
      "placename": "Venezia"
    },
    {
      "rism_id": "400065496",
      "composer": "Paisiello, Giovanni",
      "librettist": "Metastasio, Pietro",
      "title": "Alcide al bivio",
      "performance_year": "1780",
      "placename": "Sankt Petersburg"
    },
    {
      "rism_id": "190018321",
      "composer": "Piccinni, Niccolò",
      "librettist": "Metastasio, Pietro",
      "title": "Alessandro nell'Indie",
      "performance_year": "1775",
      "placename": "Napoli"
    },
    {
      "rism_id": "300036031",
      "composer": "Cimarosa, Domenico",
      "librettist": "Metastasio, Pietro",
      "title": "Alessandro nell'Indie",
      "performance_year": "1781",
      "placename": "Roma"
    },
    {
      "rism_id": "107374",
      "composer": "Paisiello, Giovanni",
      "librettist": "Metastasio, Pietro",
      "title": "Antigono",
      "performance_year": "1785",
      "placename": "Napoli"
    },
    {
      "rism_id": "310000019",
      "composer": "Paisiello, Giovanni",
      "librettist": "Metastasio, Pietro",
      "title": "Antigono",
      "performance_year": "1784",
      "placename": "Napoli"
    },
    {
      "rism_id": "456009995",
      "composer": "Paisiello, Giovanni",
      "librettist": "Metastasio, Pietro",
      "title": "Antigono",
      "performance_year": "1795",
      "placename": "Napoli"
    },
    {
      "rism_id": "840000202",
      "composer": "Anfossi, Pasquale",
      "librettist": "Metastasio, Pietro",
      "title": "Antigono",
      "performance_year": "1782",
      "placename": "Bologna"
    },
    {
      "rism_id": "126990",
      "composer": "Cimarosa, Domenico",
      "librettist": "Metastasio, Pietro",
      "title": "Artaserse",
      "performance_year": "1784",
      "placename": "Torino"
    },
    {
      "rism_id": "450012678",
      "composer": "Anfossi, Pasquale",
      "librettist": "Metastasio, Pietro",
      "title": "Artaserse",
      "performance_year": "1788",
      "placename": "Roma"
    },
    {
      "rism_id": "850010788",
      "composer": "Cimarosa, Domenico",
      "librettist": "Metastasio, Pietro",
      "title": "Artaserse",
      "performance_year": "1785",
      "placename": "Torino"
    },
    {
      "rism_id": "852030536",
      "composer": "Piccinni, Niccolò",
      "librettist": "Metastasio, Pietro",
      "title": "Artaserse",
      "performance_year": "1784",
      "placename": "Napoli"
    },
    {
      "rism_id": "211010012",
      "composer": "Salieri, Antonio",
      "librettist": "Da Ponte, Lorenzo",
      "title": "Axur re d'Ormus",
      "performance_year": "1789",
      "placename": "Dresden"
    },
    {
      "rism_id": "280000106",
      "composer": "Salieri, Antonio",
      "librettist": "Da Ponte, Lorenzo",
      "title": "Axur re d'Ormus",
      "performance_year": "1800",
      "placename": "Weimar"
    },
    {
      "rism_id": "400065300",
      "composer": "Salieri, Antonio",
      "librettist": "Da Ponte, Lorenzo",
      "title": "Axur re d'Ormus",
      "performance_year": "1788",
      "placename": "Bonn"
    },
    {
      "rism_id": "400065300",
      "composer": "Salieri, Antonio",
      "librettist": "Da Ponte, Lorenzo",
      "title": "Axur re d'Ormus",
      "performance_year": "1803",
      "placename": "Paris"
    },
    {
      "rism_id": "451511682",
      "composer": "Salieri, Antonio",
      "librettist": "Da Ponte, Lorenzo",
      "title": "Axur re d'Ormus",
      "performance_year": "1794",
      "placename": "Braunschweig"
    },
    {
      "rism_id": "500034287",
      "composer": "Salieri, Antonio",
      "librettist": "Da Ponte, Lorenzo",
      "title": "Axur re d'Ormus",
      "performance_year": "1787",
      "placename": "Paris"
    },
    {
      "rism_id": "500034290",
      "composer": "Salieri, Antonio",
      "librettist": "Da Ponte, Lorenzo",
      "title": "Axur re d'Ormus",
      "performance_year": "1786",
      "placename": "Paris"
    },
    {
      "rism_id": "500034290",
      "composer": "Salieri, Antonio",
      "librettist": "Da Ponte, Lorenzo",
      "title": "Axur re d'Ormus",
      "performance_year": "1787",
      "placename": "Wien"
    },
    {
      "rism_id": "530005383",
      "composer": "Salieri, Antonio",
      "librettist": "Da Ponte, Lorenzo",
      "title": "Axur re d'Ormus",
      "performance_year": "1788",
      "placename": "Wien"
    },
    {
      "rism_id": "850010013",
      "composer": "Anfossi, Pasquale",
      "librettist": "Bertati, Giovanni",
      "title": "Azor re di Kibinga",
      "performance_year": "1779",
      "placename": "Venezia"
    },
    {
      "rism_id": "455008486",
      "composer": "Cimarosa, Domenico",
      "librettist": "Metastasio, Pietro",
      "title": "Caio Mario",
      "performance_year": "1780",
      "placename": "Roma"
    },
    {
      "rism_id": "102137",
      "composer": "Paisiello, Giovanni",
      "librettist": "Metastasio, Pietro",
      "title": "Catone in Utica",
      "performance_year": "1789",
      "placename": "Napoli"
    },
    {
      "rism_id": "100380",
      "composer": "Mayr, Johann Simon",
      "librettist": "Rossi, Gaetano",
      "title": "Che originali",
      "performance_year": "1798",
      "placename": "Venezia"
    },
    {
      "rism_id": "100380",
      "composer": "Mayr, Johann Simon",
      "librettist": "Rossi, Gaetano",
      "title": "Che originali",
      "performance_year": "1803",
      "placename": "Wien"
    },
    {
      "rism_id": "100380",
      "composer": "Mayr, Johann Simon",
      "librettist": "Rossi, Gaetano",
      "title": "Che originali",
      "performance_year": "1815",
      "placename": "Venezia"
    },
    {
      "rism_id": "450061889",
      "composer": "Mayr, Johann Simon",
      "librettist": "Rossi, Gaetano",
      "title": "Che originali",
      "performance_year": "1802",
      "placename": "Genova"
    },
    {
      "rism_id": "450064907",
      "composer": "Mayr, Johann Simon",
      "librettist": "Rossi, Gaetano",
      "title": "Che originali",
      "performance_year": "1805",
      "placename": "Padova"
    },
    {
      "rism_id": "103501",
      "composer": "Mozart, Wolfgang Amadeus",
      "librettist": "Da Ponte, Lorenzo",
      "title": "Così fan tutte",
      "performance_year": "1790",
      "placename": "Wien"
    },
    {
      "rism_id": "270001404",
      "composer": "Mozart, Wolfgang Amadeus",
      "librettist": "Da Ponte, Lorenzo",
      "title": "Così fan tutte",
      "performance_year": "1791",
      "placename": "Dresden"
    },
    {
      "rism_id": "270001404",
      "composer": "Mozart, Wolfgang Amadeus",
      "librettist": "Da Ponte, Lorenzo",
      "title": "Così fan tutte",
      "performance_year": "1830",
      "placename": "Dresden"
    },
    {
      "rism_id": "280000101",
      "composer": "Mozart, Wolfgang Amadeus",
      "librettist": "Da Ponte, Lorenzo",
      "title": "Così fan tutte",
      "performance_year": "1797",
      "placename": "Weimar"
    },
    {
      "rism_id": "301000425",
      "composer": "Mozart, Wolfgang Amadeus",
      "librettist": "Da Ponte, Lorenzo",
      "title": "Così fan tutte",
      "performance_year": "1811",
      "placename": "Breslau"
    },
    {
      "rism_id": "301000425",
      "composer": "Mozart, Wolfgang Amadeus",
      "librettist": "Da Ponte, Lorenzo",
      "title": "Così fan tutte",
      "performance_year": "1814",
      "placename": "Breslau"
    },
    {
      "rism_id": "301000425",
      "composer": "Mozart, Wolfgang Amadeus",
      "librettist": "Da Ponte, Lorenzo",
      "title": "Così fan tutte",
      "performance_year": "1821",
      "placename": "Breslau"
    },
    {
      "rism_id": "301000425",
      "composer": "Mozart, Wolfgang Amadeus",
      "librettist": "Da Ponte, Lorenzo",
      "title": "Così fan tutte",
      "performance_year": "1824",
      "placename": "Breslau"
    },
    {
      "rism_id": "301000425",
      "composer": "Mozart, Wolfgang Amadeus",
      "librettist": "Da Ponte, Lorenzo",
      "title": "Così fan tutte",
      "performance_year": "1829",
      "placename": "Breslau"
    },
    {
      "rism_id": "301000425",
      "composer": "Mozart, Wolfgang Amadeus",
      "librettist": "Da Ponte, Lorenzo",
      "title": "Così fan tutte",
      "performance_year": "1832",
      "placename": "Breslau"
    },
    {
      "rism_id": "450018897",
      "composer": "Mozart, Wolfgang Amadeus",
      "librettist": "Da Ponte, Lorenzo",
      "title": "Così fan tutte",
      "performance_year": "1791",
      "placename": "Donaueschingen"
    },
    {
      "rism_id": "451501513",
      "composer": "Mozart, Wolfgang Amadeus",
      "librettist": "Da Ponte, Lorenzo",
      "title": "Così fan tutte",
      "performance_year": "1828",
      "placename": "Osnabrück"
    },
    {
      "rism_id": "1001035496",
      "composer": "Mozart, Wolfgang Amadeus",
      "librettist": "Da Ponte, Lorenzo",
      "title": "Così fan tutte",
      "performance_year": "1805",
      "placename": "Dessau"
    },
    {
      "rism_id": "100459",
      "composer": "Paisiello, Giovanni",
      "librettist": "Metastasio, Pietro",
      "title": "Didone abbandonata",
      "performance_year": "1794",
      "placename": "Napoli"
    },
    {
      "rism_id": "850009280",
      "composer": "Anfossi, Pasquale",
      "librettist": "Metastasio, Pietro",
      "title": "Didone abbandonata",
      "performance_year": "1775",
      "placename": "Venezia"
    },
    {
      "rism_id": "850009280",
      "composer": "Anfossi, Pasquale",
      "librettist": "Metastasio, Pietro",
      "title": "Didone abbandonata",
      "performance_year": "1788",
      "placename": "Napoli"
    },
    {
      "rism_id": "852030379",
      "composer": "Piccinni, Niccolò",
      "librettist": "Metastasio, Pietro",
      "title": "Didone abbandonata",
      "performance_year": "1780",
      "placename": "Napoli"
    },
    {
      "rism_id": "103502",
      "composer": "Mozart, Wolfgang Amadeus",
      "librettist": "Da Ponte, Lorenzo",
      "title": "Don Giovanni",
      "performance_year": "1787",
      "placename": "Praha"
    },
    {
      "rism_id": "180000585",
      "composer": "Mozart, Wolfgang Amadeus",
      "librettist": "Da Ponte, Lorenzo",
      "title": "Don Giovanni",
      "performance_year": "1794",
      "placename": "Amsterdam"
    },
    {
      "rism_id": "270001078",
      "composer": "Mozart, Wolfgang Amadeus",
      "librettist": "Da Ponte, Lorenzo",
      "title": "Don Giovanni",
      "performance_year": "1814",
      "placename": "Dresden"
    },
    {
      "rism_id": "270001078",
      "composer": "Mozart, Wolfgang Amadeus",
      "librettist": "Da Ponte, Lorenzo",
      "title": "Don Giovanni",
      "performance_year": "1821",
      "placename": "Dresden"
    },
    {
      "rism_id": "270001078",
      "composer": "Mozart, Wolfgang Amadeus",
      "librettist": "Da Ponte, Lorenzo",
      "title": "Don Giovanni",
      "performance_year": "1832",
      "placename": "Dresden"
    },
    {
      "rism_id": "280000093",
      "composer": "Mozart, Wolfgang Amadeus",
      "librettist": "Da Ponte, Lorenzo",
      "title": "Don Giovanni",
      "performance_year": "1792",
      "placename": "Weimar"
    },
    {
      "rism_id": "452502405",
      "composer": "Mozart, Wolfgang Amadeus",
      "librettist": "Da Ponte, Lorenzo",
      "title": "Don Giovanni",
      "performance_year": "1789",
      "placename": "Hamburg"
    },
    {
      "rism_id": "650009939",
      "composer": "Mozart, Wolfgang Amadeus",
      "librettist": "Da Ponte, Lorenzo",
      "title": "Don Giovanni",
      "performance_year": "1788",
      "placename": "Wien"
    },
    {
      "rism_id": "101422",
      "composer": "Paisiello, Giovanni",
      "librettist": "Calzabigi, Ranieri de",
      "title": "Elfrida",
      "performance_year": "1792",
      "placename": "Napoli"
    },
    {
      "rism_id": "101422",
      "composer": "Paisiello, Giovanni",
      "librettist": "Calzabigi, Ranieri de",
      "title": "Elfrida",
      "performance_year": "1796",
      "placename": "Bologna"
    },
    {
      "rism_id": "310000017",
      "composer": "Paisiello, Giovanni",
      "librettist": "Calzabigi, Ranieri de",
      "title": "Elfrida",
      "performance_year": "1782",
      "placename": "Napoli"
    },
    {
      "rism_id": "850036126",
      "composer": "Paisiello, Giovanni",
      "librettist": "Calzabigi, Ranieri de",
      "title": "Elfrida",
      "performance_year": "1793",
      "placename": "Napoli"
    },
    {
      "rism_id": "851001164",
      "composer": "Paisiello, Giovanni",
      "librettist": "Calzabigi, Ranieri de",
      "title": "Elfrida",
      "performance_year": "1794",
      "placename": "Napoli"
    },
    {
      "rism_id": "852029408",
      "composer": "Paisiello, Giovanni",
      "librettist": "Calzabigi, Ranieri de",
      "title": "Elfrida",
      "performance_year": "1796",
      "placename": "Verona"
    },
    {
      "rism_id": "450064908",
      "composer": "Mayr, Johann Simon",
      "librettist": "Rossi, Gaetano",
      "title": "Elisa",
      "performance_year": "1804",
      "placename": "Venezia"
    },
    {
      "rism_id": "852029222",
      "composer": "Mayr, Johann Simon",
      "librettist": "Rossi, Gaetano",
      "title": "Elisa",
      "performance_year": "1801",
      "placename": "Valletta"
    },
    {
      "rism_id": "101462",
      "composer": "Paisiello, Giovanni",
      "librettist": "Calzabigi, Ranieri de",
      "title": "Elvira",
      "performance_year": "1794",
      "placename": "Napoli"
    },
    {
      "rism_id": "850032437",
      "composer": "Paisiello, Giovanni",
      "librettist": "Calzabigi, Ranieri de",
      "title": "Elvira",
      "performance_year": "1793",
      "placename": "Napoli"
    },
    {
      "rism_id": "452020625",
      "composer": "Meyerbeer, Giacomo",
      "librettist": "Rossi, Gaetano",
      "title": "Emma di Resburgo",
      "performance_year": "1819",
      "placename": "Venezia"
    },
    {
      "rism_id": "101487",
      "composer": "Mayr, Johann Simon",
      "librettist": "Rossi, Gaetano",
      "title": "Eraldo ed Emma",
      "performance_year": "1805",
      "placename": "Milano"
    },
    {
      "rism_id": "101487",
      "composer": "Mayr, Johann Simon",
      "librettist": "Rossi, Gaetano",
      "title": "Eraldo ed Emma",
      "performance_year": "1809",
      "placename": "Ravenna"
    },
    {
      "rism_id": "840000312",
      "composer": "Anfossi, Pasquale",
      "librettist": "Metastasio, Pietro",
      "title": "Ezio",
      "performance_year": "1778",
      "placename": "Venezia"
    },
    {
      "rism_id": "280000182",
      "composer": "Mayr, Johann Simon",
      "librettist": "Rossi, Gaetano",
      "title": "Ginevra di Scozia",
      "performance_year": "1811",
      "placename": "Weimar"
    },
    {
      "rism_id": "450061890",
      "composer": "Mayr, Johann Simon",
      "librettist": "Rossi, Gaetano",
      "title": "Ginevra di Scozia",
      "performance_year": "1803",
      "placename": "Genova"
    },
    {
      "rism_id": "706001250",
      "composer": "Mayr, Johann Simon",
      "librettist": "Rossi, Gaetano",
      "title": "Ginevra di Scozia",
      "performance_year": "1802",
      "placename": "Frankfurt am Main"
    },
    {
      "rism_id": "850035287",
      "composer": "Mayr, Johann Simon",
      "librettist": "Rossi, Gaetano",
      "title": "Ginevra di Scozia",
      "performance_year": "1801",
      "placename": "Napoli"
    },
    {
      "rism_id": "100159",
      "composer": "Cimarosa, Domenico",
      "librettist": "Sografi, Simeone Antonio",
      "title": "Gli Orazi ed i Curiazi",
      "performance_year": "1796",
      "placename": "Venezia"
    },
    {
      "rism_id": "104885",
      "composer": "Cimarosa, Domenico",
      "librettist": "Sografi, Simeone Antonio",
      "title": "Gli Orazi ed i Curiazi",
      "performance_year": "1797",
      "placename": "Venezia"
    },
    {
      "rism_id": "210021787",
      "composer": "Cimarosa, Domenico",
      "librettist": "Sografi, Simeone Antonio",
      "title": "Gli Orazi ed i Curiazi",
      "performance_year": "1786",
      "placename": "Leipzig"
    },
    {
      "rism_id": "850010622",
      "composer": "Cimarosa, Domenico",
      "librettist": "Sografi, Simeone Antonio",
      "title": "Gli Orazi ed i Curiazi",
      "performance_year": "1797",
      "placename": "Roma"
    },
    {
      "rism_id": "850010792",
      "composer": "Cimarosa, Domenico",
      "librettist": "Sografi, Simeone Antonio",
      "title": "Gli Orazi ed i Curiazi",
      "performance_year": "1798",
      "placename": "Milano"
    },
    {
      "rism_id": "850035436",
      "composer": "Cimarosa, Domenico",
      "librettist": "Sografi, Simeone Antonio",
      "title": "Gli Orazi ed i Curiazi",
      "performance_year": "1794",
      "placename": "Venezia"
    },
    {
      "rism_id": "101507",
      "composer": "Mayr, Johann Simon",
      "librettist": "Rossi, Gaetano",
      "title": "Gli sciti",
      "performance_year": "1800",
      "placename": "Venezia"
    },
    {
      "rism_id": "450114584",
      "composer": "Mayr, Johann Simon",
      "librettist": "Rossi, Gaetano",
      "title": "I cherusci",
      "performance_year": "1808",
      "placename": "Roma"
    },
    {
      "rism_id": "100458",
      "composer": "Paisiello, Giovanni",
      "librettist": "Bertati, Giovanni",
      "title": "I Filosofi immaginari",
      "performance_year": "1779",
      "placename": "Sankt Petersburg"
    },
    {
      "rism_id": "270001228",
      "composer": "Paisiello, Giovanni",
      "librettist": "Bertati, Giovanni",
      "title": "I Filosofi immaginari",
      "performance_year": "1793",
      "placename": "Pillnitz"
    },
    {
      "rism_id": "280000042",
      "composer": "Paisiello, Giovanni",
      "librettist": "Bertati, Giovanni",
      "title": "I Filosofi immaginari",
      "performance_year": "1791",
      "placename": "Weimar"
    },
    {
      "rism_id": "452023861",
      "composer": "Paisiello, Giovanni",
      "librettist": "Bertati, Giovanni",
      "title": "I Filosofi immaginari",
      "performance_year": "1782",
      "placename": "Venezia"
    },
    {
      "rism_id": "840003829",
      "composer": "Paisiello, Giovanni",
      "librettist": "Bertati, Giovanni",
      "title": "I Filosofi immaginari",
      "performance_year": "1779",
      "placename": "Sankt Petersburg"
    },
    {
      "rism_id": "840003829",
      "composer": "Paisiello, Giovanni",
      "librettist": "Bertati, Giovanni",
      "title": "I Filosofi immaginari",
      "performance_year": "1780",
      "placename": "Paris"
    },
    {
      "rism_id": "101478",
      "composer": "Martín y Soler, Vicente",
      "librettist": "Da Ponte, Lorenzo",
      "title": "Il burbero di buon cuore",
      "performance_year": "1786",
      "placename": "Wien"
    },
    {
      "rism_id": "451501547",
      "composer": "Meyerbeer, Giacomo",
      "librettist": "Rossi, Gaetano",
      "title": "Il crociato in Egitto",
      "performance_year": "1833",
      "placename": "Detmold"
    },
    {
      "rism_id": "452502388",
      "composer": "Meyerbeer, Giacomo",
      "librettist": "Rossi, Gaetano",
      "title": "Il crociato in Egitto",
      "performance_year": "1824",
      "placename": "Venezia"
    },
    {
      "rism_id": "452502388",
      "composer": "Meyerbeer, Giacomo",
      "librettist": "Rossi, Gaetano",
      "title": "Il crociato in Egitto",
      "performance_year": "1832",
      "placename": "Hamburg"
    },
    {
      "rism_id": "9482",
      "composer": "Anfossi, Pasquale",
      "librettist": "Bertati, Giovanni",
      "title": "Il curioso indiscreto",
      "performance_year": "1777",
      "placename": "Roma"
    },
    {
      "rism_id": "103524",
      "composer": "Paisiello, Giovanni",
      "librettist": "Metastasio, Pietro",
      "title": "Il Demetrio",
      "performance_year": "1779",
      "placename": "Carskoe Selo"
    },
    {
      "rism_id": "115125",
      "composer": "Paisiello, Giovanni",
      "librettist": "Metastasio, Pietro",
      "title": "Il Demofoonte",
      "performance_year": "1775",
      "placename": "Venezia"
    },
    {
      "rism_id": "452023922",
      "composer": "Paisiello, Giovanni",
      "librettist": "Goldoni, Carlo",
      "title": "Il finto principe",
      "performance_year": "1775",
      "placename": "Firenze"
    },
    {
      "rism_id": "102353",
      "composer": "Anfossi, Pasquale",
      "librettist": "Bertati, Giovanni",
      "title": "Il geloso in cimento",
      "performance_year": "1779",
      "placename": "Graz"
    },
    {
      "rism_id": "102353",
      "composer": "Anfossi, Pasquale",
      "librettist": "Bertati, Giovanni",
      "title": "Il geloso in cimento",
      "performance_year": "1785",
      "placename": "Castelnuovo"
    },
    {
      "rism_id": "102353",
      "composer": "Anfossi, Pasquale",
      "librettist": "Bertati, Giovanni",
      "title": "Il geloso in cimento",
      "performance_year": "1788",
      "placename": "Napoli"
    },
    {
      "rism_id": "280000044",
      "composer": "Anfossi, Pasquale",
      "librettist": "Goldoni, Carlo",
      "title": "Il geloso in cimento",
      "performance_year": "1791",
      "placename": "Weimar"
    },
    {
      "rism_id": "451501558",
      "composer": "Anfossi, Pasquale",
      "librettist": "Bertati, Giovanni",
      "title": "Il geloso in cimento",
      "performance_year": "1781",
      "placename": "Hamburg"
    },
    {
      "rism_id": "451505827",
      "composer": "Anfossi, Pasquale",
      "librettist": "Bertati, Giovanni",
      "title": "Il geloso in cimento",
      "performance_year": "1781",
      "placename": "Braunschweig"
    },
    {
      "rism_id": "705000676",
      "composer": "Anfossi, Pasquale",
      "librettist": "Goldoni, Carlo",
      "title": "Il geloso in cimento",
      "performance_year": "1775",
      "placename": "Praha"
    },
    {
      "rism_id": "840000350",
      "composer": "Anfossi, Pasquale",
      "librettist": "Bertati, Giovanni",
      "title": "Il geloso in cimento",
      "performance_year": "1779",
      "placename": "Paris"
    },
    {
      "rism_id": "840000363",
      "composer": "Anfossi, Pasquale",
      "librettist": "Bertati, Giovanni",
      "title": "Il geloso in cimento",
      "performance_year": "1775",
      "placename": "Dresden"
    },
    {
      "rism_id": "840000404",
      "composer": "Anfossi, Pasquale",
      "librettist": "Bertati, Giovanni",
      "title": "Il matrimonio per inganno",
      "performance_year": "1779",
      "placename": "Firenze"
    },
    {
      "rism_id": "101224",
      "composer": "Cimarosa, Domenico",
      "librettist": "Bertati, Giovanni",
      "title": "Il matrimonio segreto",
      "performance_year": "1792",
      "placename": "Wien"
    },
    {
      "rism_id": "270001328",
      "composer": "Cimarosa, Domenico",
      "librettist": "Bertati, Giovanni",
      "title": "Il matrimonio segreto",
      "performance_year": "1792",
      "placename": "Dresden"
    },
    {
      "rism_id": "270001328",
      "composer": "Cimarosa, Domenico",
      "librettist": "Bertati, Giovanni",
      "title": "Il matrimonio segreto",
      "performance_year": "1830",
      "placename": "Dresden"
    },
    {
      "rism_id": "280000078",
      "composer": "Cimarosa, Domenico",
      "librettist": "Bertati, Giovanni",
      "title": "Il matrimonio segreto",
      "performance_year": "1796",
      "placename": "Weimar"
    },
    {
      "rism_id": "500239739",
      "composer": "Cimarosa, Domenico",
      "librettist": "Bertati, Giovanni",
      "title": "Il matrimonio segreto",
      "performance_year": "1794",
      "placename": "Venezia"
    },
    {
      "rism_id": "840003326",
      "composer": "Cimarosa, Domenico",
      "librettist": "Bertati, Giovanni",
      "title": "Il matrimonio segreto",
      "performance_year": "1801",
      "placename": "Paris"
    },
    {
      "rism_id": "850036105",
      "composer": "Cimarosa, Domenico",
      "librettist": "Bertati, Giovanni",
      "title": "Il matrimonio segreto",
      "performance_year": "1793",
      "placename": "Napoli"
    },
    {
      "rism_id": "1001010498",
      "composer": "Cimarosa, Domenico",
      "librettist": "Bertati, Giovanni",
      "title": "Il matrimonio segreto",
      "performance_year": "1796",
      "placename": "Dessau"
    },
    {
      "rism_id": "125792",
      "composer": "Paisiello, Giovanni",
      "librettist": "Goldoni, Carlo",
      "title": "Il mondo della luna",
      "performance_year": "1782",
      "placename": "Sankt Petersburg"
    },
    {
      "rism_id": "850008814",
      "composer": "Paisiello, Giovanni",
      "librettist": "Goldoni, Carlo",
      "title": "Il mondo della luna",
      "performance_year": "1783",
      "placename": "Sankt Petersburg"
    },
    {
      "rism_id": "450018913",
      "composer": "Mozart, Wolfgang Amadeus",
      "librettist": "Metastasio, Pietro",
      "title": "Il re pastore",
      "performance_year": "1775",
      "placename": "Salzburg"
    },
    {
      "rism_id": "455024521",
      "composer": "Piccinni, Niccolò",
      "librettist": "Mazzolà, Caterino",
      "title": "Il servo padrone",
      "performance_year": "1794",
      "placename": "Venezia"
    },
    {
      "rism_id": "400065517",
      "composer": "Salieri, Antonio",
      "librettist": "Da Ponte, Lorenzo",
      "title": "Il talismano",
      "performance_year": "1788",
      "placename": "Wien"
    },
    {
      "rism_id": "452503736",
      "composer": "Salieri, Antonio",
      "librettist": "Goldoni, Carlo",
      "title": "Il talismano",
      "performance_year": "1779",
      "placename": "Milano"
    },
    {
      "rism_id": "452503736",
      "composer": "Salieri, Antonio",
      "librettist": "Goldoni, Carlo",
      "title": "Il talismano",
      "performance_year": "1794",
      "placename": "Hamburg"
    },
    {
      "rism_id": "451015140",
      "composer": "Martín y Soler, Vicente",
      "librettist": "Metastasio, Pietro",
      "title": "Ipermestra",
      "performance_year": "1780",
      "placename": "Napoli"
    },
    {
      "rism_id": "190009493",
      "composer": "Anfossi, Pasquale",
      "librettist": "Bertati, Giovanni",
      "title": "Isabella e Rodrigo",
      "performance_year": "1776",
      "placename": "Venezia"
    },
    {
      "rism_id": "450009043",
      "composer": "Anfossi, Pasquale",
      "librettist": "Bertati, Giovanni",
      "title": "Isabella e Rodrigo",
      "performance_year": "1785",
      "placename": "Regensburg"
    },
    {
      "rism_id": "101482",
      "composer": "Mayr, Johann Simon",
      "librettist": "Rossi, Gaetano",
      "title": "L' Amor coniugale",
      "performance_year": "1805",
      "placename": "Padova"
    },
    {
      "rism_id": "450061891",
      "composer": "Mayr, Johann Simon",
      "librettist": "Rossi, Gaetano",
      "title": "L' Amor coniugale",
      "performance_year": "1807",
      "placename": "Genova"
    },
    {
      "rism_id": "102348",
      "composer": "Anfossi, Pasquale",
      "librettist": "Bertati, Giovanni",
      "title": "L' Avaro",
      "performance_year": "1775",
      "placename": "Venezia"
    },
    {
      "rism_id": "102348",
      "composer": "Anfossi, Pasquale",
      "librettist": "Bertati, Giovanni",
      "title": "L' Avaro",
      "performance_year": "1777",
      "placename": "Firenze"
    },
    {
      "rism_id": "102348",
      "composer": "Anfossi, Pasquale",
      "librettist": "Bertati, Giovanni",
      "title": "L' Avaro",
      "performance_year": "1782",
      "placename": "Braunschweig"
    },
    {
      "rism_id": "102348",
      "composer": "Anfossi, Pasquale",
      "librettist": "Bertati, Giovanni",
      "title": "L' Avaro",
      "performance_year": "1787",
      "placename": "Paris"
    },
    {
      "rism_id": "450009037",
      "composer": "Anfossi, Pasquale",
      "librettist": "Bertati, Giovanni",
      "title": "L' Avaro",
      "performance_year": "1775",
      "placename": "Regensburg"
    },
    {
      "rism_id": "840000372",
      "composer": "Anfossi, Pasquale",
      "librettist": "Goldoni, Carlo",
      "title": "L’incognita perseguitata",
      "performance_year": "1776",
      "placename": "Paris"
    },
    {
      "rism_id": "450010309",
      "composer": "Piccinni, Niccolò",
      "librettist": "Goldoni, Carlo",
      "title": "La buona figliuola",
      "performance_year": "1778",
      "placename": "Regensburg"
    },
    {
      "rism_id": "450010309",
      "composer": "Piccinni, Niccolò",
      "librettist": "Goldoni, Carlo",
      "title": "La buona figliuola",
      "performance_year": "1782",
      "placename": "Regensburg"
    },
    {
      "rism_id": "452503692",
      "composer": "Piccinni, Niccolò",
      "librettist": "Goldoni, Carlo",
      "title": "La buona figliuola",
      "performance_year": "1778",
      "placename": "Hamburg"
    },
    {
      "rism_id": "840001565",
      "composer": "Piccinni, Niccolò",
      "librettist": "Goldoni, Carlo",
      "title": "La buona figliuola",
      "performance_year": "1777",
      "placename": "Hannover"
    },
    {
      "rism_id": "100184",
      "composer": "Salieri, Antonio",
      "librettist": "Da Ponte, Lorenzo",
      "title": "La cifra",
      "performance_year": "1789",
      "placename": "Wien"
    },
    {
      "rism_id": "250000146",
      "composer": "Salieri, Antonio",
      "librettist": "Da Ponte, Lorenzo",
      "title": "La cifra",
      "performance_year": "1793",
      "placename": "Bad Lauchstädt"
    },
    {
      "rism_id": "250000146",
      "composer": "Salieri, Antonio",
      "librettist": "Da Ponte, Lorenzo",
      "title": "La cifra",
      "performance_year": "1793",
      "placename": "Weimar"
    },
    {
      "rism_id": "270001345",
      "composer": "Salieri, Antonio",
      "librettist": "Da Ponte, Lorenzo",
      "title": "La cifra",
      "performance_year": "1790",
      "placename": "Pillnitz"
    },
    {
      "rism_id": "280000091",
      "composer": "Salieri, Antonio",
      "librettist": "Da Ponte, Lorenzo",
      "title": "La cifra",
      "performance_year": "1795",
      "placename": "Weimar"
    },
    {
      "rism_id": "452503757",
      "composer": "Salieri, Antonio",
      "librettist": "Da Ponte, Lorenzo",
      "title": "La cifra",
      "performance_year": "1793",
      "placename": "Hamburg"
    },
    {
      "rism_id": "230004447",
      "composer": "Mozart, Wolfgang Amadeus",
      "librettist": "Mazzolà, Caterino",
      "title": "La clemenza di Tito",
      "performance_year": "1791",
      "placename": "Praha"
    },
    {
      "rism_id": "280000103",
      "composer": "Mozart, Wolfgang Amadeus",
      "librettist": "Mazzolà, Caterino",
      "title": "La clemenza di Tito",
      "performance_year": "1799",
      "placename": "Weimar"
    },
    {
      "rism_id": "451501511",
      "composer": "Mozart, Wolfgang Amadeus",
      "librettist": "Mazzolà, Caterino",
      "title": "La clemenza di Tito",
      "performance_year": "1825",
      "placename": "Osnabrück"
    },
    {
      "rism_id": "451501511",
      "composer": "Mozart, Wolfgang Amadeus",
      "librettist": "Mazzolà, Caterino",
      "title": "La clemenza di Tito",
      "performance_year": "1830",
      "placename": "Osnabrück"
    },
    {
      "rism_id": "451506523",
      "composer": "Mozart, Wolfgang Amadeus",
      "librettist": "Mazzolà, Caterino",
      "title": "La clemenza di Tito",
      "performance_year": "1799",
      "placename": "Braunschweig"
    },
    {
      "rism_id": "453008018",
      "composer": "Mozart, Wolfgang Amadeus",
      "librettist": "Mazzolà, Caterino",
      "title": "La clemenza di Tito",
      "performance_year": "1812",
      "placename": "Karlsruhe"
    },
    {
      "rism_id": "852030921",
      "composer": "Mozart, Wolfgang Amadeus",
      "librettist": "Mazzolà, Caterino",
      "title": "La clemenza di Tito",
      "performance_year": "1809",
      "placename": "Napoli"
    },
    {
      "rism_id": "107872",
      "composer": "Anfossi, Pasquale",
      "librettist": "Calzabigi, Ranieri de",
      "title": "La finta giardiniera",
      "performance_year": "1775",
      "placename": "London"
    },
    {
      "rism_id": "107872",
      "composer": "Anfossi, Pasquale",
      "librettist": "Calzabigi, Ranieri de",
      "title": "La finta giardiniera",
      "performance_year": "1782",
      "placename": "Frankfurt am Main"
    },
    {
      "rism_id": "840000314",
      "composer": "Anfossi, Pasquale",
      "librettist": "Calzabigi, Ranieri de",
      "title": "La finta giardiniera",
      "performance_year": "1778",
      "placename": "Paris"
    },
    {
      "rism_id": "840000321",
      "composer": "Anfossi, Pasquale",
      "librettist": "Calzabigi, Ranieri de",
      "title": "La finta giardiniera",
      "performance_year": "1775",
      "placename": "Napoli"
    },
    {
      "rism_id": "101433",
      "composer": "Anfossi, Pasquale",
      "librettist": "Bertati, Giovanni",
      "title": "La forza delle donne",
      "performance_year": "1778",
      "placename": "Venezia"
    },
    {
      "rism_id": "101433",
      "composer": "Anfossi, Pasquale",
      "librettist": "Bertati, Giovanni",
      "title": "La forza delle donne",
      "performance_year": "1780",
      "placename": "Torino"
    },
    {
      "rism_id": "450009040",
      "composer": "Anfossi, Pasquale",
      "librettist": "Bertati, Giovanni",
      "title": "La forza delle donne",
      "performance_year": "1785",
      "placename": "Regensburg"
    },
    {
      "rism_id": "451507113",
      "composer": "Anfossi, Pasquale",
      "librettist": "Bertati, Giovanni",
      "title": "La forza delle donne",
      "performance_year": "1781",
      "placename": "Braunschweig"
    },
    {
      "rism_id": "120765",
      "composer": "Paisiello, Giovanni",
      "librettist": "Bertati, Giovanni",
      "title": "La locanda",
      "performance_year": "1791",
      "placename": "London"
    },
    {
      "rism_id": "132096",
      "composer": "Paisiello, Giovanni",
      "librettist": "Bertati, Giovanni",
      "title": "La locanda",
      "performance_year": "1792",
      "placename": "Napoli"
    },
    {
      "rism_id": "851000970",
      "composer": "Mayr, Johann Simon",
      "librettist": "Rossi, Gaetano",
      "title": "La roccia di Frauenstein",
      "performance_year": "1805",
      "placename": "Venezia"
    },
    {
      "rism_id": "452503738",
      "composer": "Salieri, Antonio",
      "librettist": "Mazzolà, Caterino",
      "title": "La scuola de' gelosi",
      "performance_year": "1778",
      "placename": "Venezia"
    },
    {
      "rism_id": "452503738",
      "composer": "Salieri, Antonio",
      "librettist": "Mazzolà, Caterino",
      "title": "La scuola de' gelosi",
      "performance_year": "1795",
      "placename": "Hamburg"
    },
    {
      "rism_id": "103493",
      "composer": "Martín y Soler, Vicente",
      "librettist": "Da Ponte, Lorenzo",
      "title": "La scuola dei maritati",
      "performance_year": "1795",
      "placename": "London"
    },
    {
      "rism_id": "103493",
      "composer": "Martín y Soler, Vicente",
      "librettist": "Da Ponte, Lorenzo",
      "title": "La scuola dei maritati",
      "performance_year": "1795",
      "placename": "Venezia"
    },
    {
      "rism_id": "103493",
      "composer": "Martín y Soler, Vicente",
      "librettist": "Da Ponte, Lorenzo",
      "title": "La scuola dei maritati",
      "performance_year": "1796",
      "placename": "Wien"
    },
    {
      "rism_id": "104444",
      "composer": "Martín y Soler, Vicente",
      "librettist": "Da Ponte, Lorenzo",
      "title": "La scuola dei maritati",
      "performance_year": "1800",
      "placename": "Udine"
    },
    {
      "rism_id": "280000120",
      "composer": "Martín y Soler, Vicente",
      "librettist": "Da Ponte, Lorenzo",
      "title": "La scuola dei maritati",
      "performance_year": "1799",
      "placename": "Weimar"
    },
    {
      "rism_id": "101217",
      "composer": "Cimarosa, Domenico",
      "librettist": "Goldoni, Carlo",
      "title": "La vanità delusa",
      "performance_year": "1784",
      "placename": "Firenze"
    },
    {
      "rism_id": "103492",
      "composer": "Martín y Soler, Vicente",
      "librettist": "Da Ponte, Lorenzo",
      "title": "L'arbore di Diana",
      "performance_year": "1787",
      "placename": "Wien"
    },
    {
      "rism_id": "280000058",
      "composer": "Martín y Soler, Vicente",
      "librettist": "Da Ponte, Lorenzo",
      "title": "L'arbore di Diana",
      "performance_year": "1793",
      "placename": "Weimar"
    },
    {
      "rism_id": "450013125",
      "composer": "Martín y Soler, Vicente",
      "librettist": "Da Ponte, Lorenzo",
      "title": "L'arbore di Diana",
      "performance_year": "1789",
      "placename": "Donaueschingen"
    },
    {
      "rism_id": "451507536",
      "composer": "Martín y Soler, Vicente",
      "librettist": "Da Ponte, Lorenzo",
      "title": "L'arbore di Diana",
      "performance_year": "1789",
      "placename": "Braunschweig"
    },
    {
      "rism_id": "452502374",
      "composer": "Martín y Soler, Vicente",
      "librettist": "Da Ponte, Lorenzo",
      "title": "L'arbore di Diana",
      "performance_year": "1788",
      "placename": "Hamburg"
    },
    {
      "rism_id": "700009206",
      "composer": "Martín y Soler, Vicente",
      "librettist": "Da Ponte, Lorenzo",
      "title": "L'arbore di Diana",
      "performance_year": "1783",
      "placename": "Venezia"
    },
    {
      "rism_id": "866914736",
      "composer": "Martín y Soler, Vicente",
      "librettist": "Da Ponte, Lorenzo",
      "title": "L'arbore di Diana",
      "performance_year": "1787",
      "placename": "Wien"
    },
    {
      "rism_id": "114379",
      "composer": "Mozart, Wolfgang Amadeus",
      "librettist": "Da Ponte, Lorenzo",
      "title": "Le nozze di Figaro",
      "performance_year": "1786",
      "placename": "Wien"
    },
    {
      "rism_id": "250000141",
      "composer": "Mozart, Wolfgang Amadeus",
      "librettist": "Da Ponte, Lorenzo",
      "title": "Le nozze di Figaro",
      "performance_year": "1793",
      "placename": "Weimar"
    },
    {
      "rism_id": "270001406",
      "composer": "Mozart, Wolfgang Amadeus",
      "librettist": "Da Ponte, Lorenzo",
      "title": "Le nozze di Figaro",
      "performance_year": "1815",
      "placename": "Dresden"
    },
    {
      "rism_id": "270001406",
      "composer": "Mozart, Wolfgang Amadeus",
      "librettist": "Da Ponte, Lorenzo",
      "title": "Le nozze di Figaro",
      "performance_year": "1829",
      "placename": "Dresden"
    },
    {
      "rism_id": "451501520",
      "composer": "Mozart, Wolfgang Amadeus",
      "librettist": "Da Ponte, Lorenzo",
      "title": "Le nozze di Figaro",
      "performance_year": "1829",
      "placename": "Detmold"
    },
    {
      "rism_id": "463305600",
      "composer": "Mozart, Wolfgang Amadeus",
      "librettist": "Da Ponte, Lorenzo",
      "title": "Le nozze di Figaro",
      "performance_year": "1787",
      "placename": "Praha"
    },
    {
      "rism_id": "463305600",
      "composer": "Mozart, Wolfgang Amadeus",
      "librettist": "Da Ponte, Lorenzo",
      "title": "Le nozze di Figaro",
      "performance_year": "1790",
      "placename": "Potsdam"
    },
    {
      "rism_id": "150203358",
      "composer": "Cimarosa, Domenico",
      "librettist": "Metastasio, Pietro",
      "title": "L'eroe cinese",
      "performance_year": "1782",
      "placename": "Napoli"
    },
    {
      "rism_id": "850006954",
      "composer": "Anfossi, Pasquale",
      "librettist": "Bertati, Giovanni",
      "title": "L'imbroglio delle tre spose",
      "performance_year": "1781",
      "placename": "Venezia"
    },
    {
      "rism_id": "851000082",
      "composer": "Anfossi, Pasquale",
      "librettist": "Bertati, Giovanni",
      "title": "L'imbroglio delle tre spose",
      "performance_year": "1781",
      "placename": "Firenze"
    },
    {
      "rism_id": "101435",
      "composer": "Anfossi, Pasquale",
      "librettist": "Bertati, Giovanni",
      "title": "Lo sposo disperato",
      "performance_year": "1777",
      "placename": "Bologna"
    },
    {
      "rism_id": "101435",
      "composer": "Anfossi, Pasquale",
      "librettist": "Bertati, Giovanni",
      "title": "Lo sposo disperato",
      "performance_year": "1777",
      "placename": "Venezia"
    },
    {
      "rism_id": "452002422",
      "composer": "Anfossi, Pasquale",
      "librettist": "Bertati, Giovanni",
      "title": "Lo sposo disperato",
      "performance_year": "1778",
      "placename": "Venezia"
    },
    {
      "rism_id": "101218",
      "composer": "Cimarosa, Domenico",
      "librettist": "Metastasio, Pietro",
      "title": "L'Olimpiade",
      "performance_year": "1784",
      "placename": "Vicenza"
    },
    {
      "rism_id": "450022392",
      "composer": "Cimarosa, Domenico",
      "librettist": "Metastasio, Pietro",
      "title": "L'Olimpiade",
      "performance_year": "1784",
      "placename": "Venezia"
    },
    {
      "rism_id": "115119",
      "composer": "Anfossi, Pasquale",
      "librettist": "Metastasio, Pietro",
      "title": "Nitteti",
      "performance_year": "1780",
      "placename": "Venezia"
    },
    {
      "rism_id": "452023862",
      "composer": "Paisiello, Giovanni",
      "librettist": "Metastasio, Pietro",
      "title": "Nitteti",
      "performance_year": "1777",
      "placename": "Sankt Petersburg"
    },
    {
      "rism_id": "452023862",
      "composer": "Paisiello, Giovanni",
      "librettist": "Metastasio, Pietro",
      "title": "Nitteti",
      "performance_year": "1778",
      "placename": "Sankt Petersburg"
    },
    {
      "rism_id": "101421",
      "composer": "Paisiello, Giovanni",
      "librettist": "Metastasio, Pietro",
      "title": "Olimpiade",
      "performance_year": "1786",
      "placename": "Napoli"
    },
    {
      "rism_id": "450061753",
      "composer": "Cimarosa, Domenico",
      "librettist": "Metastasio, Pietro",
      "title": "Olimpiade",
      "performance_year": "1784",
      "placename": "Vicenza"
    },
    {
      "rism_id": "451000073",
      "composer": "Anfossi, Pasquale",
      "librettist": "Metastasio, Pietro",
      "title": "Olimpiade",
      "performance_year": "1778",
      "placename": "Roma"
    },
    {
      "rism_id": "456009997",
      "composer": "Paisiello, Giovanni",
      "librettist": "Metastasio, Pietro",
      "title": "Olimpiade",
      "performance_year": "1796",
      "placename": "Napoli"
    },
    {
      "rism_id": "101506",
      "composer": "Mayr, Johann Simon",
      "librettist": "Sografi, Simeone Antonio",
      "title": "Saffo",
      "performance_year": "1794",
      "placename": "Venezia"
    },
    {
      "rism_id": "280000280",
      "composer": "Rossini, Gioachino",
      "librettist": "Rossi, Gaetano",
      "title": "Semiramide",
      "performance_year": "1825",
      "placename": "Weimar"
    },
    {
      "rism_id": "450061016",
      "composer": "Rossini, Gioachino",
      "librettist": "Rossi, Gaetano",
      "title": "Semiramide",
      "performance_year": "1823",
      "placename": "Venezia"
    },
    {
      "rism_id": "452503734",
      "composer": "Rossini, Gioachino",
      "librettist": "Rossi, Gaetano",
      "title": "Semiramide",
      "performance_year": "1830",
      "placename": "Hamburg"
    },
    {
      "rism_id": "210010000",
      "composer": "Rossini, Gioachino",
      "librettist": "Rossi, Gaetano",
      "title": "Tancredi",
      "performance_year": "1813",
      "placename": "Venezia"
    },
    {
      "rism_id": "280000227",
      "composer": "Rossini, Gioachino",
      "librettist": "Rossi, Gaetano",
      "title": "Tancredi",
      "performance_year": "1817",
      "placename": "Weimar"
    },
    {
      "rism_id": "101509",
      "composer": "Mayr, Johann Simon",
      "librettist": "Sografi, Simeone Antonio",
      "title": "Telemaco nell'isola di Calipso",
      "performance_year": "1797",
      "placename": "Venezia"
    },
    {
      "rism_id": "280000084",
      "composer": "Martín y Soler, Vicente",
      "librettist": "Da Ponte, Lorenzo",
      "title": "Una cosa rara",
      "performance_year": "1791",
      "placename": "Weimar"
    },
    {
      "rism_id": "450013124",
      "composer": "Martín y Soler, Vicente",
      "librettist": "Da Ponte, Lorenzo",
      "title": "Una cosa rara",
      "performance_year": "1788",
      "placename": "Donaueschingen"
    },
    {
      "rism_id": "451501518",
      "composer": "Martín y Soler, Vicente",
      "librettist": "Da Ponte, Lorenzo",
      "title": "Una cosa rara",
      "performance_year": "1827",
      "placename": "Detmold"
    },
    {
      "rism_id": "451501518",
      "composer": "Martín y Soler, Vicente",
      "librettist": "Da Ponte, Lorenzo",
      "title": "Una cosa rara",
      "performance_year": "1829",
      "placename": "Osnabrück"
    },
    {
      "rism_id": "451507320",
      "composer": "Martín y Soler, Vicente",
      "librettist": "Da Ponte, Lorenzo",
      "title": "Una cosa rara",
      "performance_year": "1788",
      "placename": "Braunschweig"
    },
    {
      "rism_id": "451511607",
      "composer": "Martín y Soler, Vicente",
      "librettist": "Da Ponte, Lorenzo",
      "title": "Una cosa rara",
      "performance_year": "1787",
      "placename": "Wien"
    },
    {
      "rism_id": "451511607",
      "composer": "Martín y Soler, Vicente",
      "librettist": "Da Ponte, Lorenzo",
      "title": "Una cosa rara",
      "performance_year": "1795",
      "placename": "Braunschweig"
    },
    {
      "rism_id": "456015127",
      "composer": "Martín y Soler, Vicente",
      "librettist": "Da Ponte, Lorenzo",
      "title": "Una cosa rara",
      "performance_year": "1786",
      "placename": "Wien"
    },
    {
      "rism_id": "500000034",
      "composer": "Martín y Soler, Vicente",
      "librettist": "Da Ponte, Lorenzo",
      "title": "Una cosa rara",
      "performance_year": "1788",
      "placename": "Venezia"
    },
    {
      "rism_id": "850001922",
      "composer": "Martín y Soler, Vicente",
      "librettist": "Da Ponte, Lorenzo",
      "title": "Una cosa rara",
      "performance_year": "1788",
      "placename": "Bologna"
    },
    {
      "rism_id": "850008697",
      "composer": "Martín y Soler, Vicente",
      "librettist": "Da Ponte, Lorenzo",
      "title": "Una cosa rara",
      "performance_year": "1789",
      "placename": "Napoli"
    },
    {
      "rism_id": "850013578",
      "composer": "Martín y Soler, Vicente",
      "librettist": "Da Ponte, Lorenzo",
      "title": "Una cosa rara",
      "performance_year": "1790",
      "placename": "Faenza"
    },
    {
      "rism_id": "852028289",
      "composer": "Martín y Soler, Vicente",
      "librettist": "Da Ponte, Lorenzo",
      "title": "Una cosa rara",
      "performance_year": "1788",
      "placename": "Roma"
    }
  ]
}